NORAD_CAT_ID,OBJECT_NAME,OBJECT_TYPE,EPOCH,MEAN_MOTION,ECCENTRICITY,INCLINATION,RA_OF_ASC_NODE,ARG_OF_PERICENTER,MEAN_ANOMALY,BSTAR,MEAN_MOTION_DOT,MEAN_MOTION_DDOT,TLE_LINE0,TLE_LINE1,TLE_LINE2,SEMIMAJOR_AXIS,PERIOD,APOGEE,PERIGEE,DECAYED
55640.0,STARLINK-5069,PAYLOAD,2023-02-22 16:00:00,15.94658589,0.003758,69.9999,136.7827,163.3215,237.5312,-0.0026617,-0.01089176,0.00036358,0 STARLINK-5069,1 55640U 23021N   23053.66667824 -.01089176  36358-3 -26617-2 0  9992,2 55640  69.9999 136.7827 0037580 163.3215 237.5312 15.94658589  1308,6667.403,90.301,314.324,264.212,0.0
55640.0,STARLINK-5069,PAYLOAD,2023-02-22 22:00:00,15.94161411,0.0034239,69.9996,136.0536,163.4312,231.9092,-0.0029148,-0.01146334,0.00039753,0 STARLINK-5069,1 55640U 23021N   23053.91667824 -.01146334  39753-3 -29148-2 0  9994,2 55640  69.9996 136.0536 0034239 163.4312 231.9092 15.94161411  1308,6668.789,90.33,313.487,267.821,0.0
55640.0,STARLINK-5069,PAYLOAD,2023-02-23 08:00:01,15.93256274,0.0029697,69.9999,134.8405,165.2914,99.8367,-0.0030069,-0.01110577,0.0003715,0 STARLINK-5069,1 55640U 23021N   23054.33334491 -.01110577  37150-3 -30069-2 0  9995,2 55640  69.9999 134.8405 0029697 165.2914  99.8367 15.93256274  1400,6671.315,90.381,312.991,273.368,0.0
55640.0,STARLINK-5069,PAYLOAD,2023-02-23 14:00:01,15.92728397,0.0027395,69.9999,134.1131,166.177,92.1809,-0.003121,-0.01113694,0.00037144,0 STARLINK-5069,1 55640U 23021N   23054.58334491 -.01113694  37144-3 -31210-2 0  9997,2 55640  69.9999 134.1131 0027395 166.1770  92.1809 15.92728397  1307,6672.788,90.411,312.934,276.373,0.0
55640.0,STARLINK-5069,PAYLOAD,2023-02-23 16:00:00,15.92544729,0.0026511,70.0,133.8709,166.9439,209.055,-0.0031259,-0.01102249,0.00036375,0 STARLINK-5069,1 55640U 23021N   23054.66667824 -.01102249  36375-3 -31259-2 0  9997,2 55640  70.0000 133.8709 0026511 166.9439 209.0550 15.92544729  1452,6673.302,90.421,312.858,277.475,0.0
55640.0,STARLINK-5069,PAYLOAD,2023-02-23 22:00:00,15.92035358,0.0023588,69.9996,133.1442,168.3928,200.1931,-0.0033454,-0.0114022,0.00038525,0 STARLINK-5069,1 55640U 23021N   23054.91667824 -.01140220  38525-3 -33454-2 0  9994,2 55640  69.9996 133.1442 0023588 168.3928 200.1931 15.92035358  1302,6674.725,90.45,312.334,280.846,0.0
55640.0,STARLINK-5069,PAYLOAD,2023-02-24 02:00:01,15.91650708,0.0022455,69.9999,132.6603,169.6253,73.772,-0.0032448,-0.01081822,0.00034827,0 STARLINK-5069,1 55640U 23021N   23055.08334491 -.01081822  34827-3 -32448-2 0  9999,2 55640  69.9999 132.6603 0022455 169.6253  73.7720 15.91650708  1520,6675.8,90.472,312.656,282.675,0.0
55640.0,STARLINK-5069,PAYLOAD,2023-02-24 08:00:01,15.91126244,0.0019768,70.0002,131.9349,172.2152,62.9802,-0.003381,-0.01091207,0.00035203,0 STARLINK-5069,1 55640U 23021N   23055.33334491 -.01091207  35203-3 -33810-2 0  9998,2 55640  70.0002 131.9349 0019768 172.2152  62.9802 15.91126244  1566,6677.267,90.502,312.332,285.932,0.0
55640.0,STARLINK-5069,PAYLOAD,2023-02-24 14:00:01,15.90609418,0.0017513,70.0,131.2099,174.8569,51.6561,-0.0035523,-0.01112015,0.00036268,0 STARLINK-5069,1 55640U 23021N   23055.58334491 -.01112015  36268-3 -35523-2 0  9991,2 55640  70.0000 131.2099 0017513 174.8569  51.6561 15.90609418  1302,6678.713,90.531,312.275,288.882,0.0
55640.0,STARLINK-5069,PAYLOAD,2023-02-24 18:00:00,15.90233366,0.0016143,69.9997,130.7273,177.6469,282.8275,-0.0034993,-0.01072695,0.00033809,0 STARLINK-5069,1 55640U 23021N   23055.75001157 -.01072695  33809-3 -34993-2 0  9997,2 55640  69.9997 130.7273 0016143 177.6469 282.8275 15.90233366  1631,6679.766,90.553,312.414,290.848,0.0
55640.0,STARLINK-5069,PAYLOAD,2023-02-24 22:00:00,15.89924958,0.0014247,69.9998,130.2441,181.8727,152.3233,-0.0038496,-0.01158009,0.00038827,0 STARLINK-5069,1 55640U 23021N   23055.91667824 -.01158009  38827-3 -38496-2 0  9995,2 55640  69.9998 130.2441 0014247 181.8727 152.3233 15.89924958  1302,6680.63,90.57,312.013,292.977,0.0
55640.0,STARLINK-5069,PAYLOAD,2023-02-25 02:00:01,15.89524707,0.0013151,70.0,129.7617,185.4587,22.2833,-0.0036285,-0.01068947,0.0003336,0 STARLINK-5069,1 55640U 23021N   23056.08334491 -.01068947  33360-3 -36285-2 0  9997,2 55640  70.0000 129.7617 0013151 185.4587  22.2833 15.89524707  1684,6681.751,90.593,312.404,294.829,0.0
55640.0,STARLINK-5069,PAYLOAD,2023-02-25 08:00:01,15.88996546,0.0011064,69.9999,129.0385,194.1866,3.4488,-0.0037478,-0.01072792,0.00033411,0 STARLINK-5069,1 55640U 23021N   23056.33334491 -.01072792  33411-3 -37478-2 0  9990,2 55640  69.9999 129.0385 0011064 194.1866   3.4488 15.88996546  1726,6683.232,90.623,312.491,297.703,0.0
55640.0,STARLINK-5069,PAYLOAD,2023-02-25 14:00:01,15.88477902,0.0009779,69.9998,128.316,203.8503,343.1962,-0.0039114,-0.01089646,0.00034218,0 STARLINK-5069,1 55640U 23021N   23056.58334491 -.01089646  34218-3 -39114-2 0  9998,2 55640  69.9998 128.3160 0009779 203.8503 343.1962 15.88477902  1769,6684.687,90.653,313.089,300.015,0.0
55640.0,STARLINK-5069,PAYLOAD,2023-02-25 22:00:00,15.87806096,0.0008423,69.9996,127.3526,223.3897,68.7922,-0.0043064,-0.01038898,0.0,0 STARLINK-5069,1 55640U 23021N   23056.91667824 -.01038898  00000-0 -43064-2 0  9995,2 55640  69.9996 127.3526 0008423 223.3897  68.7922 15.87806096  1811,6686.572,90.691,314.069,302.805,0.0
55640.0,STARLINK-5069,PAYLOAD,2023-02-26 06:00:00,15.87094321,0.0008597,69.9994,126.3914,244.5274,151.9567,-0.0044185,-0.01030095,0.0,0 STARLINK-5069,1 55640U 23021N   23057.25001157 -.01030095  00000-0 -44185-2 0  9990,2 55640  69.9994 126.3914 0008597 244.5274 151.9567 15.87094321  1871,6688.571,90.732,316.186,304.686,0.0
55640.0,STARLINK-5069,PAYLOAD,2023-02-26 14:00:01,15.86344307,0.0009078,69.9999,125.4312,260.4261,239.5292,-0.0042639,-0.00965505,0.0,0 STARLINK-5069,1 55640U 23021N   23057.58334491 -.00965505  00000-0 -42639-2 0  9990,2 55640  69.9999 125.4312 0009078 260.4261 239.5292 15.86344307  1303,6690.679,90.775,318.618,306.47,0.0
55640.0,STARLINK-5069,PAYLOAD,2023-02-26 22:00:00,15.85644102,0.0008335,69.9996,124.4707,269.1325,333.4266,-0.0044659,-0.00975294,0.0,0 STARLINK-5069,1 55640U 23021N   23057.91667824 -.00975294  00000-0 -44659-2 0  9996,2 55640  69.9996 124.4707 0008335 269.1325 333.4266 15.85644102  1972,6692.649,90.815,320.092,308.935,0.0
55640.0,STARLINK-5069,PAYLOAD,2023-02-27 14:00:01,15.84244971,0.0007676,69.9999,122.5545,271.9334,173.2892,-0.0049051,-0.00997816,0.0,0 STARLINK-5069,1 55640U 23021N   23058.58334491 -.00997816  00000-0 -49051-2 0  9996,2 55640  69.9999 122.5545 0007676 271.9334 173.2892 15.84244971  2089,6696.589,90.895,323.594,313.313,0.0
55640.0,STARLINK-5069,PAYLOAD,2023-02-27 22:00:01,15.83592577,0.0004071,69.9997,121.5974,281.6415,263.6834,-0.0054624,-0.01065148,0.0,0 STARLINK-5069,1 55640U 23021N   23058.91668981 -.01065148  00000-0 -54624-2 0  9994,2 55640  69.9997 121.5974 0004071 281.6415 263.6834 15.83592577  1307,6698.428,90.932,323.02,317.566,0.0
55640.0,STARLINK-5069,PAYLOAD,2023-02-28 14:00:01,15.82116739,0.0003629,69.9999,119.6876,269.3866,113.4861,-0.0053422,-0.00980918,0.0,0 STARLINK-5069,1 55640U 23021N   23059.58334491 -.00980918  00000-0 -53422-2 0  9999,2 55640  69.9999 119.6876 0003629 269.3866 113.4861 15.82116739  1302,6702.593,91.017,326.89,322.025,0.0
55640.0,STARLINK-5069,PAYLOAD,2023-02-28 18:00:00,15.81761734,0.0003525,69.9996,119.2106,266.7694,344.9708,-0.0054229,-0.0097942,0.0,0 STARLINK-5069,1 55640U 23021N   23059.75001157 -.00979420  00000-0 -54229-2 0  9990,2 55640  69.9996 119.2106 0003525 266.7694 344.9708 15.81761734  2263,6703.595,91.038,327.823,323.097,0.0
55640.0,STARLINK-5069,PAYLOAD,2023-02-28 22:00:00,15.81424138,0.0003623,69.9999,118.7336,278.292,202.0953,-0.0056383,-0.01000011,0.0,0 STARLINK-5069,1 55640U 23021N   23059.91667824 -.01000011  00000-0 -56383-2 0  9992,2 55640  69.9999 118.7336 0003623 278.2920 202.0953 15.81424138  1308,6704.549,91.057,328.844,323.985,0.0
55640.0,STARLINK-5069,PAYLOAD,2023-03-01 14:00:01,15.80011668,0.0003609,69.9997,116.829,270.0957,42.7903,-0.0060187,-0.0099992,0.0,0 STARLINK-5069,1 55640U 23021N   23060.58334491 -.00999920  00000-0 -60187-2 0  9990,2 55640  69.9997 116.8290 0003609 270.0957  42.7903 15.80011668  2391,6708.545,91.139,332.831,327.988,0.0
55640.0,STARLINK-5069,PAYLOAD,2023-03-01 22:00:00,15.79305315,0.0003786,69.9999,115.8784,280.0768,127.7875,-0.0062186,-0.01000308,0.0,0 STARLINK-5069,1 55640U 23021N   23060.91667824 -.01000308  00000-0 -62186-2 0  9991,2 55640  69.9999 115.8784 0003786 280.0768 127.7875 15.79305315  1302,6710.545,91.179,334.95,329.869,0.0
55640.0,STARLINK-5069,PAYLOAD,2023-03-02 20:00:01,15.77345204,0.0003439,69.9998,113.2691,269.6323,305.0612,-0.0066288,-0.00978265,0.0,0 STARLINK-5069,1 55640U 23021N   23061.83334491 -.00978265  00000-0 -66288-2 0  9996,2 55640  69.9998 113.2691 0003439 269.6323 305.0612 15.77345204  1304,6716.103,91.293,340.278,335.658,0.0
55640.0,STARLINK-5069,PAYLOAD,2023-03-03 14:00:01,15.75788026,0.0003428,69.9997,111.1396,274.6121,235.4236,-0.0074281,-0.0103514,0.0,0 STARLINK-5069,1 55640U 23021N   23062.58334491 -.01035140  00000-0 -74281-2 0  9998,2 55640  69.9997 111.1396 0003428 274.6121 235.4236 15.75788026  2717,6720.527,91.383,344.695,340.088,0.0
55640.0,STARLINK-5069,PAYLOAD,2023-03-03 22:00:00,15.75045821,0.0003485,70.0001,110.1949,268.3732,331.574,-0.0072941,-0.00972903,0.0,0 STARLINK-5069,1 55640U 23021N   23062.91667824 -.00972903  00000-0 -72941-2 0  9991,2 55640  70.0001 110.1949 0003485 268.3732 331.5740 15.75045821  1301,6722.638,91.426,346.846,342.16,0.0
55640.0,STARLINK-5069,PAYLOAD,2023-03-04 10:00:01,15.73982578,0.0003446,70.0002,108.7795,277.1489,276.1164,-0.0075928,-0.00967504,0.0,0 STARLINK-5069,1 55640U 23021N   23063.41668981 -.00967504  00000-0 -75928-2 0  9991,2 55640  70.0002 108.7795 0003446 277.1489 276.1164 15.73982578  2849,6725.665,91.488,349.848,345.212,0.0
